[{"OBJECT_NAME":"VIGORIDE-3","OBJECT_ID":"2022-057AE","EPOCH":"2026-03-09T22:06:57.048768","MEAN_MOTION":15.2610122,"ECCENTRICITY":0.00097778,"INCLINATION":97.6431,"RA_OF_ASC_NODE":206.4459,"ARG_OF_PERICENTER":111.2279,"MEAN_ANOMALY":249.0004,"EPHEMERIS_TYPE":0,"CLASSIFICATION_TYPE":"U","NORAD_CAT_ID":52760,"ELEMENT_SET_NO":999,"REV_AT_EPOCH":21001,"BSTAR":0.00033325795,"MEAN_MOTION_DOT":8.532e-5,"MEAN_MOTION_DDOT":0},{"OBJECT_NAME":"STARLINK-32537","OBJECT_ID":"2024-207M","EPOCH":"2026-03-09T01:55:55.651872","MEAN_MOTION":15.27569636,"ECCENTRICITY":0.00015585,"INCLINATION":42.9996,"RA_OF_ASC_NODE":289.0978,"ARG_OF_PERICENTER":273.0497,"MEAN_ANOMALY":87.0176,"EPHEMERIS_TYPE":0,"CLASSIFICATION_TYPE":"U","NORAD_CAT_ID":61923,"ELEMENT_SET_NO":999,"REV_AT_EPOCH":7458,"BSTAR":0.0010489138,"MEAN_MOTION_DOT":0.00028705,"MEAN_MOTION_DDOT":0}]
